#dP2024 11  1  6  0  0.00000000      96 __u+U IGS20 EXT  IAC
## 2338 453600.00000000   900.00000000 60615 0.2500000000000
+   53   G02G03G04G05G06G07G08G09G10G11G12G13G14G15G16G17G18
+        G19G20G21G22G23G24G25G26G27G28G29G30G31G32R01R02R03
+        R04R05R07R08R09R11R12R14R15R16R17R18R19R20R21R22R24
+        R25R26  0  0  0  0  0  0  0  0  0  0  0  0  0  0  0
+          0  0  0  0  0  0  0  0  0  0  0  0  0  0  0  0  0
++         7  7  8  8  8  8  8  7  7  8  7  7  8  6  8  7  7
++         7  7  7  8  6  7  7  7  7  7  7  8  9  7  7  7  7
++         7  9  8  7  9  9  9  7  9 10  8  8  8  9  8  7  7
++         9  7  0  0  0  0  0  0  0  0  0  0  0  0  0  0  0
++         0  0  0  0  0  0  0  0  0  0  0  0  0  0  0  0  0
%c M  cc GPS ccc cccc cccc cccc cccc ccccc ccccc ccccc ccccc
%c cc cc ccc ccc cccc cccc cccc cccc ccccc ccccc ccccc ccccc
%f  0.0000000  0.000000000  0.00000000000  0.000000000000000
%f  0.0000000  0.000000000  0.00000000000  0.000000000000000
%i    0    0    0    0      0      0      0      0         0
%i    0    0    0    0      0      0      0      0         0
/* IAC                                ULTRA-RAPID PREDICTION
/* S/V CLOCKS ARE ALIGNED TO GNSS TIME                      
/* G:C1WC2W R:C1PC2P E:C1XC5X C:C2IC6I J:C1CC2S             
/* PCV:IGS20_2317 OL/AL:FES2004  NONE     YN ORB:CoN CLK:CoN
*  2024 11 02  5 30  0.00000000
PG02  21987.530748  12055.478443   9744.014584   -323.808821
PG03  14602.908735   2111.785395  21911.267713    588.280664
PG04  25501.202635   1342.963336   7593.755586    472.353782
PG05  -7604.147330 -17950.760730 -18188.504910   -191.710484
PG06    350.092608 -18815.759825  18767.472959    -83.239396
PG07  17113.180173  -1857.215030 -19812.336799    -22.862342
PG08  18953.745804   8146.634945 -17085.832726    402.087276
PG09  25610.002763  -6947.207203  -1874.961074    425.269365
PG10 -10240.658465  24146.263846  -2549.450342   -180.367364
PG11 -11290.614170 -22856.416364   7603.024617   -747.986554
PG12 -13221.119140  -7321.713248  21558.907849   -549.295088
PG13 -10697.036924 -13510.067957 -20508.804852    684.242918
PG14  13035.640367 -22123.280568  -6254.428897    530.856878
PG15 -19850.785743  -6211.463107 -17125.972325    222.871834
PG16   2511.861228  21290.630961 -15724.239871   -139.092997
PG17  16565.951178 -13514.997808  16296.169140    574.102269
PG18 -15643.995904   3664.702918 -21163.713002   -659.649865
PG19   6364.196155 -14967.556054  20765.101957    557.848066
PG20  -2017.889173 -25195.774584  -8319.648356    369.113001
PG21  21220.496872  16555.893943   3935.735513     98.423815
PG22   9348.762155 -24953.373377   2476.267426    -76.141920
PG23 -15392.433374  15432.359382 -14979.880562    354.546916
PG24 -21747.190202 -13986.759126   6477.788536   -482.383881
PG25 -16626.541502   7562.199747  18842.656226    499.264137
PG26  -3216.866638  25819.668425  -4351.198448     40.359177
PG27   8033.394877  13802.178565 -21575.427071    -34.740078
PG28  -1929.851646  17956.784423  19459.837061   -465.840213
PG29 -26376.299799   3584.723745   -802.391044   -566.893804
PG30   9370.646066 -12901.802343 -21068.363762   -290.336681
PG31   7665.927243  22259.697047  11678.222529   -222.452248
PG32 -13317.250096  15090.639788  17444.124101   -579.266305
PR01   8392.573870   7461.360300  22897.900301    103.067656
PR02  20432.123051  -4243.113290  14762.340372    -25.469692
PR03  21233.632503 -14066.961968  -1903.555101    110.579384
PR04  10719.835117 -15598.896573 -17089.165214    262.075996
PR05  -5589.173620  -9097.038373 -23160.205058    140.066588
PR07 -20996.216785  14215.985644   2511.355837     94.147727
PR08 -10205.738465  15727.598250  17327.561136     -6.322745
PR09 -11383.808265  -4663.495419  22352.970832    218.182036
PR11  -2509.391663  24346.116517   7228.238951      7.817967
PR12   6519.124727  21439.784248 -12151.985308     46.749557
PR14   8924.962487 -13733.905084 -19537.613224     27.158757
PR15   1836.295358 -24843.360735  -5455.393179     74.493307
PR16  -6461.733670 -21503.178888  12079.323685     30.441815
PR17  14208.491603  -3159.205025  20949.262452    136.179054
PR18  -1077.698896 -12272.595744  22350.959275    169.855760
PR19 -14185.588933 -15977.308168  13950.480972   -297.008099
PR20 -22364.825371 -10057.381789  -6949.805302   -121.375879
PR21 -14983.900021   2279.090138 -20519.789795   -147.840288
PR22   1880.390292  13153.823859 -21743.373722      2.751337
PR24  22857.924882   8530.389361   7427.530937    -78.454970
PR25 -14204.165486   3093.947528 -20956.609112    -84.513913
PR26 -11650.624390  16048.995116  16066.955418   -493.553384
*  2024 11 02  5 45  0.00000000
PG02  22523.765155  12798.264251   7114.009280   -323.801233
PG03  13846.884946   4541.441309  22041.356059    588.290551
PG04  24546.046145   1737.791394  10202.223902    472.359735
PG05  -6987.312524 -19802.411675 -16403.813348   -191.711618
PG06   1886.747295 -17224.071261  20167.163749    -83.265074
PG07  18586.037833    -96.299774 -18607.558559    -22.859806
PG08  17043.195897   8794.619846 -18673.241987    402.096975
PG09  25712.652802  -6710.562803    973.652694    425.284540
PG10 -10292.036797  23622.187627  -5428.142307   -180.379918
PG11 -10474.747031 -22219.199599  10216.350591   -747.988499
PG12 -12285.680371  -9647.700685  21202.498659   -549.297451
PG13  -8367.159673 -13752.670395 -21400.138122    684.244458
PG14  13039.072235 -21193.704220  -8908.720295    530.864352
PG15 -18091.491968  -7088.330396 -18696.795379    222.875865
PG16   1701.163573  22731.228270 -13587.963179   -139.084033
PG17  18241.036520 -13636.898475  14237.561330    574.089801
PG18 -17168.719378   1856.353501 -20217.230051   -659.650557
PG19   8716.132141 -15139.011374  19731.306116    557.852161
PG20  -1677.392389 -25964.831727  -5632.532333    369.112708
PG21  21286.140835  16841.604744   1161.269975     98.423067
PG22   9592.113584 -24936.474354   -358.048568    -76.144697
PG23 -15036.802347  13622.378789 -16979.548484    354.554180
PG24 -22024.862517 -14629.417450   3781.361807   -482.382266
PG25 -16118.799160   5312.566678  20018.719241    499.263979
PG26  -3644.370474  26059.148106  -1561.815941     40.350191
PG27   5679.311456  14371.829596 -21915.648144    -34.740084
PG28  -3608.608098  16391.464171  20570.170855   -465.851205
PG29 -26333.720505   3352.773808   2060.650667   -566.891211
PG30  11072.120845 -11118.362965 -21281.276018   -290.329794
PG31   6473.777391  21288.155672  13975.280036   -222.451668
PG32 -15164.872530  15354.836354  15563.365433   -579.261863
PR01   6067.997324   9086.195621  23044.694873    103.068931
PR02  18716.342730  -3293.424179  17094.961861    -25.469832
PR03  21175.257147 -14231.211015   1311.870461    110.580071
PR04  12304.460012 -16776.286306 -14751.685374    262.077641
PR05  -3196.135975 -10642.815376 -22957.082561    140.067116
PR07 -20996.987966  14409.357904   -710.627560     94.148395
PR08 -11803.120996  16917.946245  15028.801919     -6.322522
PR09 -11661.436636  -7347.995446  21463.388580    218.184059
PR11  -2447.956547  23265.451101  10199.572193      7.817143
PR12   6722.771762  22757.760282  -9318.249314     46.749972
PR14   9056.765729 -11232.564335 -21019.776429     27.158847
PR15   1768.838096 -23973.342653  -8507.525453     74.493047
PR16  -6686.926577 -22805.690742   9226.840123     30.442120
PR17  16466.298976  -2111.108917  19363.195835    136.182151
PR18   1380.600671 -10935.748655  23022.307895    169.857467
PR19 -12635.679079 -14910.444837  16405.470502   -297.009258
PR20 -23047.836161 -10204.516636  -3791.201803   -121.376837
PR21 -17188.426931   1251.078233 -18812.398025   -147.843104
PR22   -500.246819  11791.508661 -22582.431870      2.740847
PR24  23566.900960   8728.848684   4319.456021    -78.456370
PR25 -16416.497272   1942.193063 -19425.765811    -84.509266
PR26 -13100.542295  17169.792610  13601.131281   -493.517116
EOF
